      2.10          N: GNSS NAV DATA                        RINEX VERSION / TYPE
fic2rin                                 07/31/2023 00:17:50 PGM / RUN BY / DATE
                                                            END OF HEADER
6  23  7 30  1 59 44.0  .572713091969D-03 -.432009983342D-11  .000000000000D+00
     .600000000000D+01 -.121250000000D+02  .381265881254D-08  .228441410615D+01
    -.536441802979D-06  .267719582189D-02  .588595867157D-06  .515371409035D+04
     .718400000000D+04 -.149011611938D-07  .113590234868D+01  .186264514923D-08
     .989170265312D+00  .382593750000D+03 -.764553289456D+00 -.801069082028D-08
     .160720980388D-10  .100000000000D+01  .227300000000D+04  .000000000000D+00
     .240000000000D+01  .000000000000D+00  .372529029846D-08  .600000000000D+01
     .000000000000D+00  .400000000000D+01
14 23  7 30 16  0  0.0  .138631090522D-03  .118234311230D-10  .000000000000D+00
     .520000000000D+02  .169375000000D+02  .459662003910D-08  .172254386972D+01
     .871717929840D-06  .343486829661D-02  .100042670965D-04  .515367867088D+04
     .576000000000D+05 -.113621354103D-06 -.938404461021D+00 -.204890966415D-07
     .948020512677D+00  .177875000000D+03 -.295854540928D+01 -.787497088129D-08
    -.661813281465D-09  .100000000000D+01  .227300000000D+04  .000000000000D+00
     .240000000000D+01  .000000000000D+00 -.791624188423D-08  .308000000000D+03
     .504000000000D+05  .400000000000D+01
8  23  7 30 16  0  0.0 -.134792178869D-03 -.193267624127D-11  .000000000000D+00
     .179000000000D+03  .161343750000D+03  .430446501253D-08 -.949650010312D+00
     .832043588161D-05  .851673050784D-02  .800751149654D-05  .515373649025D+04
     .576000000000D+05  .169500708580D-06  .501274863196D-01 -.134110450745D-06
     .958112453047D+00  .219468750000D+03  .270656410749D+00 -.797997525514D-08
     .191079387795D-09  .100000000000D+01  .227300000000D+04  .000000000000D+00
     .340000000000D+01  .000000000000D+00  .512227416039D-08  .179000000000D+03
     .504000000000D+05  .400000000000D+01
18 23  7 30 16  0  0.0 -.364689156413D-03 -.137561073643D-10  .000000000000D+00
     .112000000000D+03  .103437500000D+02  .458554814934D-08 -.295118352567D+01
     .694766640663D-06  .352740171365D-02 -.931322574615D-07  .515366448784D+04
     .576000000000D+05 -.521540641785D-07  .114388569744D+01 -.745058059692D-07
     .973872231059D+00  .391781250000D+03  .313180230549D+01 -.830784605514D-08
     .145720355552D-09  .100000000000D+01  .227300000000D+04  .000000000000D+00
     .240000000000D+01  .000000000000D+00 -.838190317154D-08  .624000000000D+03
     .504000000000D+05  .400000000000D+01
28 23  7 30 16  0  0.0  .799526460469D-04 -.238742359215D-11  .000000000000D+00
     .180000000000D+03  .934375000000D+01  .484163024476D-08  .104950503139D+01
     .409781932831D-06  .639259698801D-03  .573135912418D-05  .515370591927D+04
     .576000000000D+05  .726431608200D-07 -.205065473201D+01 -.130385160446D-07
     .961154787223D+00  .272093750000D+03  .163526303184D+01 -.802176271004D-08
     .217866217860D-10  .100000000000D+01  .227300000000D+04  .000000000000D+00
     .240000000000D+01  .000000000000D+00 -.977888703346D-08  .436000000000D+03
     .504000000000D+05  .400000000000D+01
23 23  7 30 16  0  0.0  .491412356496D-04  .443378667114D-11  .000000000000D+00
     .166000000000D+03 -.149593750000D+03  .420660379336D-08  .229843951432D+01
    -.769831240177D-05  .343687168788D-02  .627525150776D-05  .515367499352D+04
     .576000000000D+05 -.819563865662D-07  .214417207452D+01  .121071934700D-06
     .974769596712D+00  .267031250000D+03 -.310535147095D+01 -.794961684774D-08
    -.209651589973D-09  .100000000000D+01  .227300000000D+04  .000000000000D+00
     .240000000000D+01  .000000000000D+00 -.838190317154D-08  .934000000000D+03
     .504000000000D+05  .400000000000D+01
22 23  7 30 16  0  0.0  .520138069987D-03  .522959453519D-11  .000000000000D+00
     .520000000000D+02 -.282187500000D+02  .444054210926D-08 -.110018720797D+01
    -.144354999065D-05  .143845021958D-01  .105537474155D-04  .515365848541D+04
     .576000000000D+05 -.109896063805D-06 -.298006812631D+01  .379979610443D-06
     .963342456863D+00  .179625000000D+03 -.179820053610D+01 -.790318634229D-08
     .441089801732D-09  .100000000000D+01  .227300000000D+04  .000000000000D+00
     .240000000000D+01  .630000000000D+02 -.838190317154D-08  .520000000000D+02
     .504000000000D+05  .400000000000D+01
23 23  7 30 16 14 40.0  .491444952786D-04  .443378667114D-11  .000000000000D+00
     .167000000000D+03 -.146281250000D+03  .420981821297D-08  .242687656508D+01
    -.754185020924D-05  .343717110809D-02  .629946589470D-05  .515367425346D+04
     .584800000000D+05 -.106170773506D-06  .214416497790D+01  .894069671631D-07
     .974769482604D+00  .266562500000D+03 -.310543336949D+01 -.792961601462D-08
    -.194650965137D-09  .100000000000D+01  .227300000000D+04  .000000000000D+00
     .240000000000D+01  .000000000000D+00 -.838190317154D-08  .935000000000D+03
     .513000000000D+05  .400000000000D+01
12 23  7 30 15 59 44.0 -.406970269978D-03 -.454747350886D-11  .000000000000D+00
     .240000000000D+02  .261562500000D+02  .415588739511D-08  .180873914339D+01
     .130012631416D-05  .865117227659D-02  .972859561443D-05  .515357064438D+04
     .575840000000D+05  .409781932831D-07 -.898744969867D+00 -.184401869774D-06
     .964711854978D+00  .192750000000D+03  .138544617586D+01 -.770174938020D-08
    -.470376735936D-09  .100000000000D+01  .227300000000D+04  .000000000000D+00
     .240000000000D+01  .000000000000D+00 -.125728547573D-07  .240000000000D+02
     .538500000000D+05  .400000000000D+01
1  23  7 30 15 59 44.0  .170604791492D-03 -.159161572810D-11  .000000000000D+00
     .300000000000D+01  .190625000000D+02  .421696136765D-08 -.313334352625D+01
     .800937414169D-06  .129281855188D-01 -.110454857349D-05  .515364077568D+04
     .575840000000D+05  .167638063431D-07  .114382621227D+01 -.245869159698D-06
     .989973857916D+00  .416625000000D+03  .990357628142D+00 -.811426656320D-08
     .110361739867D-09  .100000000000D+01  .227300000000D+04  .000000000000D+00
     .240000000000D+01  .630000000000D+02  .465661287308D-08  .300000000000D+01
     .540600000000D+05  .400000000000D+01
28 23  7 30 17 29 36.0  .799382105470D-04 -.238742359215D-11  .000000000000D+00
     .181000000000D+03  .903125000000D+01  .489270380075D-08  .183333982983D+01
     .383704900742D-06  .639295787551D-03  .554136931896D-05  .515370626068D+04
     .629760000000D+05  .186264514923D-07 -.205069796270D+01  .149011611938D-07
     .961154649709D+00  .273468750000D+03  .163555037967D+01 -.807140763510D-08
     .157149403046D-10  .100000000000D+01  .227300000000D+04  .000000000000D+00
     .240000000000D+01  .000000000000D+00 -.977888703346D-08  .437000000000D+03
     .558000000000D+05  .400000000000D+01
1  23  7 30 17 59 44.0  .170593149960D-03 -.159161572810D-11  .000000000000D+00
     .220000000000D+02  .109062500000D+02  .417553107049D-08 -.208309566603D+01
     .508502125740D-06  .129282221897D-01 -.117719173431D-05  .515364130592D+04
     .647840000000D+05  .143423676491D-06  .114376671978D+01 -.447034835815D-07
     .989975325223D+00  .413562500000D+03  .990309670761D+00 -.814962517889D-08
     .282511767749D-09  .100000000000D+01  .227300000000D+04  .000000000000D+00
     .240000000000D+01  .630000000000D+02  .465661287308D-08  .220000000000D+02
     .576000000000D+05  .400000000000D+01
12 23  7 30 17 59 44.0 -.407002866268D-03 -.454747350886D-11  .000000000000D+00
     .400000000000D+02  .187187500000D+02  .410267089271D-08  .285911251029D+01
     .107474625111D-05  .865192408673D-02  .100322067738D-04  .515356813622D+04
     .647840000000D+05  .186264514923D-07 -.898798629702D+00  .856816768646D-07
     .964708977418D+00  .185500000000D+03  .138531444887D+01 -.746923969524D-08
    -.588238788221D-09  .100000000000D+01  .227300000000D+04  .000000000000D+00
     .240000000000D+01  .000000000000D+00 -.125728547573D-07  .400000000000D+02
     .576000000000D+05  .400000000000D+01
2  23  7 30 18  0  0.0 -.570757780224D-03  .397903932026D-11  .000000000000D+00
     .210000000000D+02  .351562500000D+02  .481662920337D-08  .599436467358D+00
     .165216624737D-05  .159402620047D-01 -.102445483208D-06  .515354667473D+04
     .648000000000D+05 -.199303030968D-06  .104371140035D+01 -.167638063431D-06
     .967398366516D+00  .388031250000D+03 -.136263084343D+01 -.883143929347D-08
     .170007081477D-09  .100000000000D+01  .227300000000D+04  .000000000000D+00
     .240000000000D+01  .000000000000D+00 -.176951289177D-07  .210000000000D+02
     .576000000000D+05  .400000000000D+01
3  23  7 30 18  0  0.0 -.209984835237D-03  .169393388205D-10  .000000000000D+00
     .720000000000D+02 -.176687500000D+03  .404088260469D-08  .301636796758D+01
    -.913254916668D-05  .506875594147D-02  .645034015179D-05  .515363506126D+04
     .648000000000D+05  .130385160446D-07  .217426849506D+01 -.143423676491D-06
     .979931849866D+00  .262031250000D+03  .107864650143D+01 -.783354058412D-08
    -.205722854897D-09  .100000000000D+01  .227300000000D+04  .000000000000D+00
     .340000000000D+01  .000000000000D+00  .186264514923D-08  .720000000000D+02
     .576000000000D+05  .400000000000D+01
